[{"OBJECT_NAME":"TIGRISAT","OBJECT_ID":"2014-033AK","EPOCH":"2026-03-05T09:52:36.449472","MEAN_MOTION":14.84701104,"ECCENTRICITY":0.0050658,"INCLINATION":97.7663,"RA_OF_ASC_NODE":216.9192,"ARG_OF_PERICENTER":56.1746,"MEAN_ANOMALY":304.4276,"EPHEMERIS_TYPE":0,"CLASSIFICATION_TYPE":"U","NORAD_CAT_ID":40043,"ELEMENT_SET_NO":999,"REV_AT_EPOCH":63022,"BSTAR":0.0004017,"MEAN_MOTION_DOT":3.426e-5,"MEAN_MOTION_DDOT":0},{"OBJECT_NAME":"AISAT","OBJECT_ID":"2014-034B","EPOCH":"2026-03-05T15:15:16.244352","MEAN_MOTION":15.06578433,"ECCENTRICITY":0.0008621,"INCLINATION":98.2451,"RA_OF_ASC_NODE":329.6473,"ARG_OF_PERICENTER":202.1886,"MEAN_ANOMALY":157.8967,"EPHEMERIS_TYPE":0,"CLASSIFICATION_TYPE":"U","NORAD_CAT_ID":40054,"ELEMENT_SET_NO":999,"REV_AT_EPOCH":63160,"BSTAR":0.00097229,"MEAN_MOTION_DOT":0.00014355,"MEAN_MOTION_DDOT":0},{"OBJECT_NAME":"CANX-4","OBJECT_ID":"2014-034C","EPOCH":"2026-03-05T14:09:21.363840","MEAN_MOTION":14.81049876,"ECCENTRICITY":0.0012615,"INCLINATION":98.3283,"RA_OF_ASC_NODE":296.02,"ARG_OF_PERICENTER":349.9844,"MEAN_ANOMALY":10.1114,"EPHEMERIS_TYPE":0,"CLASSIFICATION_TYPE":"U","NORAD_CAT_ID":40055,"ELEMENT_SET_NO":999,"REV_AT_EPOCH":62919,"BSTAR":0.00021973,"MEAN_MOTION_DOT":1.649e-5,"MEAN_MOTION_DDOT":0},{"OBJECT_NAME":"CANX-5","OBJECT_ID":"2014-034D","EPOCH":"2026-03-05T14:08:48.462720","MEAN_MOTION":14.81066541,"ECCENTRICITY":0.0012612,"INCLINATION":98.3284,"RA_OF_ASC_NODE":296.0572,"ARG_OF_PERICENTER":350.1508,"MEAN_ANOMALY":9.9454,"EPHEMERIS_TYPE":0,"CLASSIFICATION_TYPE":"U","NORAD_CAT_ID":40056,"ELEMENT_SET_NO":999,"REV_AT_EPOCH":62000,"BSTAR":0.00021934,"MEAN_MOTION_DOT":1.646e-5,"MEAN_MOTION_DDOT":0},{"OBJECT_NAME":"VELOX-I","OBJECT_ID":"2014-034E","EPOCH":"2026-03-05T17:57:11.147616","MEAN_MOTION":14.96812568,"ECCENTRICITY":0.0005631,"INCLINATION":98.265,"RA_OF_ASC_NODE":323.9234,"ARG_OF_PERICENTER":253.6103,"MEAN_ANOMALY":106.4498,"EPHEMERIS_TYPE":0,"CLASSIFICATION_TYPE":"U","NORAD_CAT_ID":40057,"ELEMENT_SET_NO":999,"REV_AT_EPOCH":63112,"BSTAR":0.00076427,"MEAN_MOTION_DOT":8.697e-5,"MEAN_MOTION_DDOT":0},{"OBJECT_NAME":"GONETS-M 10","OBJECT_ID":"2014-036C","EPOCH":"2026-03-05T19:08:15.765216","MEAN_MOTION":12.42942682,"ECCENTRICITY":0.0022455,"INCLINATION":82.5158,"RA_OF_ASC_NODE":11.8846,"ARG_OF_PERICENTER":10.3772,"MEAN_ANOMALY":349.7767,"EPHEMERIS_TYPE":0,"CLASSIFICATION_TYPE":"U","NORAD_CAT_ID":40063,"ELEMENT_SET_NO":999,"REV_AT_EPOCH":52940,"BSTAR":0.00092948,"MEAN_MOTION_DOT":1.39e-6,"MEAN_MOTION_DDOT":0},{"OBJECT_NAME":"METEOR-M 2","OBJECT_ID":"2014-037A","EPOCH":"2026-03-05T17:47:40.045344","MEAN_MOTION":14.21425865,"ECCENTRICITY":0.0005617,"INCLINATION":98.5019,"RA_OF_ASC_NODE":44.198,"ARG_OF_PERICENTER":349.8018,"MEAN_ANOMALY":10.3045,"EPHEMERIS_TYPE":0,"CLASSIFICATION_TYPE":"U","NORAD_CAT_ID":40069,"ELEMENT_SET_NO":999,"REV_AT_EPOCH":60462,"BSTAR":-3.1015e-5,"MEAN_MOTION_DOT":-1.1e-6,"MEAN_MOTION_DDOT":0},{"OBJECT_NAME":"DX1","OBJECT_ID":"2014-037C","EPOCH":"2026-03-05T19:05:40.965792","MEAN_MOTION":14.89599998,"ECCENTRICITY":0.0005894,"INCLINATION":98.3761,"RA_OF_ASC_NODE":20.3249,"ARG_OF_PERICENTER":246.0184,"MEAN_ANOMALY":114.0414,"EPHEMERIS_TYPE":0,"CLASSIFICATION_TYPE":"U","NORAD_CAT_ID":40071,"ELEMENT_SET_NO":999,"REV_AT_EPOCH":63071,"BSTAR":0.00026506,"MEAN_MOTION_DOT":2.469e-5,"MEAN_MOTION_DDOT":0},{"OBJECT_NAME":"UKUBE-1","OBJECT_ID":"2014-037F","EPOCH":"2026-03-05T12:19:33.487392","MEAN_MOTION":15.11681951,"ECCENTRICITY":0.0002853,"INCLINATION":98.423,"RA_OF_ASC_NODE":57.0506,"ARG_OF_PERICENTER":115.8299,"MEAN_ANOMALY":244.3223,"EPHEMERIS_TYPE":0,"CLASSIFICATION_TYPE":"U","NORAD_CAT_ID":40074,"ELEMENT_SET_NO":999,"REV_AT_EPOCH":63288,"BSTAR":0.00077337,"MEAN_MOTION_DOT":0.00013102,"MEAN_MOTION_DDOT":0},{"OBJECT_NAME":"GAOFEN-2","OBJECT_ID":"2014-049A","EPOCH":"2026-03-05T19:02:48.626304","MEAN_MOTION":14.80763821,"ECCENTRICITY":0.0006766,"INCLINATION":98.0231,"RA_OF_ASC_NODE":129.0538,"ARG_OF_PERICENTER":198.5468,"MEAN_ANOMALY":161.5498,"EPHEMERIS_TYPE":0,"CLASSIFICATION_TYPE":"U","NORAD_CAT_ID":40118,"ELEMENT_SET_NO":999,"REV_AT_EPOCH":62393,"BSTAR":0.00012995,"MEAN_MOTION_DOT":9.48e-6,"MEAN_MOTION_DDOT":0},{"OBJECT_NAME":"BRITE-PL2 (HEWELIUSZ)","OBJECT_ID":"2014-049B","EPOCH":"2026-03-05T17:19:40.347264","MEAN_MOTION":14.94158096,"ECCENTRICITY":0.0015602,"INCLINATION":97.8984,"RA_OF_ASC_NODE":176.0294,"ARG_OF_PERICENTER":93.5209,"MEAN_ANOMALY":266.7796,"EPHEMERIS_TYPE":0,"CLASSIFICATION_TYPE":"U","NORAD_CAT_ID":40119,"ELEMENT_SET_NO":999,"REV_AT_EPOCH":62599,"BSTAR":0.00038877,"MEAN_MOTION_DOT":4.112e-5,"MEAN_MOTION_DDOT":0},{"OBJECT_NAME":"CBERS 4","OBJECT_ID":"2014-079A","EPOCH":"2026-03-05T17:45:32.276160","MEAN_MOTION":14.35411776,"ECCENTRICITY":7.52e-5,"INCLINATION":98.3489,"RA_OF_ASC_NODE":124.879,"ARG_OF_PERICENTER":55.3381,"MEAN_ANOMALY":304.7876,"EPHEMERIS_TYPE":0,"CLASSIFICATION_TYPE":"U","NORAD_CAT_ID":40336,"ELEMENT_SET_NO":999,"REV_AT_EPOCH":58911,"BSTAR":6.2171e-5,"MEAN_MOTION_DOT":1.36e-6,"MEAN_MOTION_DDOT":0},{"OBJECT_NAME":"SMAP","OBJECT_ID":"2015-003A","EPOCH":"2026-03-05T18:19:36.753312","MEAN_MOTION":14.63333335,"ECCENTRICITY":0.000129,"INCLINATION":98.1311,"RA_OF_ASC_NODE":73.3071,"ARG_OF_PERICENTER":112.6447,"MEAN_ANOMALY":247.4892,"EPHEMERIS_TYPE":0,"CLASSIFICATION_TYPE":"U","NORAD_CAT_ID":40376,"ELEMENT_SET_NO":999,"REV_AT_EPOCH":59249,"BSTAR":0.00016624,"MEAN_MOTION_DOT":8.11e-6,"MEAN_MOTION_DDOT":0},{"OBJECT_NAME":"GONETS-M 11","OBJECT_ID":"2015-020A","EPOCH":"2026-03-05T17:30:38.076768","MEAN_MOTION":12.42872819,"ECCENTRICITY":0.0015282,"INCLINATION":82.4807,"RA_OF_ASC_NODE":95.4644,"ARG_OF_PERICENTER":224.4834,"MEAN_ANOMALY":135.5019,"EPHEMERIS_TYPE":0,"CLASSIFICATION_TYPE":"U","NORAD_CAT_ID":40552,"ELEMENT_SET_NO":999,"REV_AT_EPOCH":49588,"BSTAR":0.00075101,"MEAN_MOTION_DOT":1.14e-6,"MEAN_MOTION_DDOT":0},{"OBJECT_NAME":"GONETS-M 12","OBJECT_ID":"2015-020B","EPOCH":"2026-03-05T18:50:10.093920","MEAN_MOTION":12.42888185,"ECCENTRICITY":0.0014562,"INCLINATION":82.4842,"RA_OF_ASC_NODE":96.527,"ARG_OF_PERICENTER":207.9902,"MEAN_ANOMALY":152.0395,"EPHEMERIS_TYPE":0,"CLASSIFICATION_TYPE":"U","NORAD_CAT_ID":40553,"ELEMENT_SET_NO":999,"REV_AT_EPOCH":49588,"BSTAR":5.176e-5,"MEAN_MOTION_DOT":1.7e-7,"MEAN_MOTION_DDOT":0},{"OBJECT_NAME":"GONETS-M 13","OBJECT_ID":"2015-020C","EPOCH":"2026-03-05T18:09:28.390176","MEAN_MOTION":12.42866895,"ECCENTRICITY":0.0013506,"INCLINATION":82.4802,"RA_OF_ASC_NODE":95.1893,"ARG_OF_PERICENTER":191.9996,"MEAN_ANOMALY":168.0763,"EPHEMERIS_TYPE":0,"CLASSIFICATION_TYPE":"U","NORAD_CAT_ID":40554,"ELEMENT_SET_NO":999,"REV_AT_EPOCH":49585,"BSTAR":-0.00017397,"MEAN_MOTION_DOT":-1.4e-7,"MEAN_MOTION_DDOT":0},{"OBJECT_NAME":"DMC3-FM1","OBJECT_ID":"2015-032A","EPOCH":"2026-03-05T18:06:26.653824","MEAN_MOTION":14.85605545,"ECCENTRICITY":0.0006701,"INCLINATION":97.6619,"RA_OF_ASC_NODE":293.898,"ARG_OF_PERICENTER":44.0258,"MEAN_ANOMALY":316.149,"EPHEMERIS_TYPE":0,"CLASSIFICATION_TYPE":"U","NORAD_CAT_ID":40715,"ELEMENT_SET_NO":999,"REV_AT_EPOCH":57455,"BSTAR":8.1513e-5,"MEAN_MOTION_DOT":6.54e-6,"MEAN_MOTION_DDOT":0},{"OBJECT_NAME":"DMC3-FM2","OBJECT_ID":"2015-032B","EPOCH":"2026-03-05T18:38:37.316256","MEAN_MOTION":14.85608242,"ECCENTRICITY":0.0007236,"INCLINATION":97.6673,"RA_OF_ASC_NODE":295.4219,"ARG_OF_PERICENTER":47.6694,"MEAN_ANOMALY":312.5133,"EPHEMERIS_TYPE":0,"CLASSIFICATION_TYPE":"U","NORAD_CAT_ID":40716,"ELEMENT_SET_NO":999,"REV_AT_EPOCH":57455,"BSTAR":9.7777e-5,"MEAN_MOTION_DOT":7.95e-6,"MEAN_MOTION_DDOT":0},{"OBJECT_NAME":"DMC3-FM3","OBJECT_ID":"2015-032C","EPOCH":"2026-03-05T19:11:50.781120","MEAN_MOTION":14.85609334,"ECCENTRICITY":0.0006525,"INCLINATION":97.6728,"RA_OF_ASC_NODE":297.1301,"ARG_OF_PERICENTER":48.9214,"MEAN_ANOMALY":311.2564,"EPHEMERIS_TYPE":0,"CLASSIFICATION_TYPE":"U","NORAD_CAT_ID":40717,"ELEMENT_SET_NO":999,"REV_AT_EPOCH":57456,"BSTAR":0.00016178,"MEAN_MOTION_DOT":1.349e-5,"MEAN_MOTION_DDOT":0},{"OBJECT_NAME":"CARBONITE 1 (CBNT-1)","OBJECT_ID":"2015-032D","EPOCH":"2026-03-05T18:37:37.865280","MEAN_MOTION":14.83197821,"ECCENTRICITY":0.0013263,"INCLINATION":97.6454,"RA_OF_ASC_NODE":247.212,"ARG_OF_PERICENTER":274.4136,"MEAN_ANOMALY":85.5563,"EPHEMERIS_TYPE":0,"CLASSIFICATION_TYPE":"U","NORAD_CAT_ID":40718,"ELEMENT_SET_NO":999,"REV_AT_EPOCH":57401,"BSTAR":0.00051789,"MEAN_MOTION_DOT":4.185e-5,"MEAN_MOTION_DDOT":0},{"OBJECT_NAME":"DEORBITSAIL","OBJECT_ID":"2015-032E","EPOCH":"2026-03-05T13:44:45.744288","MEAN_MOTION":15.0219299,"ECCENTRICITY":0.0011806,"INCLINATION":97.5987,"RA_OF_ASC_NODE":283.4067,"ARG_OF_PERICENTER":223.5285,"MEAN_ANOMALY":136.5009,"EPHEMERIS_TYPE":0,"CLASSIFICATION_TYPE":"U","NORAD_CAT_ID":40719,"ELEMENT_SET_NO":999,"REV_AT_EPOCH":57568,"BSTAR":0.0008107,"MEAN_MOTION_DOT":0.00010643,"MEAN_MOTION_DDOT":0},{"OBJECT_NAME":"2015-049G","OBJECT_ID":"2015-049G","EPOCH":"2026-03-05T18:07:29.428608","MEAN_MOTION":15.58829223,"ECCENTRICITY":0.0004712,"INCLINATION":97.472,"RA_OF_ASC_NODE":103.1318,"ARG_OF_PERICENTER":221.8406,"MEAN_ANOMALY":138.249,"EPHEMERIS_TYPE":0,"CLASSIFICATION_TYPE":"U","NORAD_CAT_ID":40905,"ELEMENT_SET_NO":999,"REV_AT_EPOCH":58029,"BSTAR":0.0004736,"MEAN_MOTION_DOT":0.0003661,"MEAN_MOTION_DDOT":0},{"OBJECT_NAME":"LILACSAT-2","OBJECT_ID":"2015-049K","EPOCH":"2026-03-05T18:22:17.277600","MEAN_MOTION":15.47850951,"ECCENTRICITY":0.000556,"INCLINATION":97.481,"RA_OF_ASC_NODE":97.8537,"ARG_OF_PERICENTER":264.7152,"MEAN_ANOMALY":95.3463,"EPHEMERIS_TYPE":0,"CLASSIFICATION_TYPE":"U","NORAD_CAT_ID":40908,"ELEMENT_SET_NO":999,"REV_AT_EPOCH":57973,"BSTAR":0.00041152,"MEAN_MOTION_DOT":0.0002134,"MEAN_MOTION_DDOT":0},{"OBJECT_NAME":"COSMOS 2507 (RODNIK-S 13)","OBJECT_ID":"2015-050A","EPOCH":"2026-03-05T19:07:11.767872","MEAN_MOTION":12.42922994,"ECCENTRICITY":0.000957,"INCLINATION":82.4953,"RA_OF_ASC_NODE":144.0451,"ARG_OF_PERICENTER":207.3025,"MEAN_ANOMALY":152.7553,"EPHEMERIS_TYPE":0,"CLASSIFICATION_TYPE":"U","NORAD_CAT_ID":40920,"ELEMENT_SET_NO":999,"REV_AT_EPOCH":47401,"BSTAR":7.4241e-5,"MEAN_MOTION_DOT":2.0e-7,"MEAN_MOTION_DDOT":0}]
